OBJECT_NAME,OBJECT_ID,EPOCH,MEAN_MOTION,ECCENTRICITY,INCLINATION,RA_OF_ASC_NODE,ARG_OF_PERICENTER,MEAN_ANOMALY,EPHEMERIS_TYPE,CLASSIFICATION_TYPE,NORAD_CAT_ID,ELEMENT_SET_NO,REV_AT_EPOCH,BSTAR,MEAN_MOTION_DOT,MEAN_MOTION_DDOT
COSMOS 2534 (758),2019-030A,2026-06-24T12:18:01.016064,2.13102365,.00134625,64.3690,192.3697,274.9296,83.9383,0,U,44299,999,5507,0,.105E-5,0
BEIDOU-3 IGSO-2 (C39),2019-035A,2026-06-25T16:15:04.743072,1.00264102,.0039503,55.2491,158.7880,216.5820,261.6369,0,U,44337,999,2575,0,-.65E-6,0
GPS BIII-2  (PRN 18),2019-056A,2026-06-25T13:46:59.277216,2.00570153,.0062392,55.6328,330.8088,197.6754,125.8238,0,U,44506,999,5023,0,-.105E-5,0
BEIDOU-3 M24 (C46),2019-061A,2026-06-25T07:07:21.335808,1.86229185,.0008489,54.3964,182.4538,358.5416,1.4883,0,U,44542,999,4594,0,.103E-5,0
BEIDOU-3 M23 (C45),2019-061B,2026-06-23T13:15:09.144288,1.86227312,.00058235,54.3954,182.4810,338.7823,203.1503,0,U,44543,999,4591,0,.102E-5,0
EUTELSAT 5 WEST B (EGNOS/PRN 121),2019-067A,2026-06-25T17:42:31.027104,1.00271458,.0003398,0.0622,3.3854,90.7742,80.3376,0,U,44624,999,2452,0,-.32E-6,0
BEIDOU-3 M22 (C44),2019-078A,2026-06-22T23:43:57.808992,1.86227077,.00062495,53.9301,299.6233,51.2109,308.8401,0,U,44793,999,4475,0,-.107E-5,0
BEIDOU-3 M21 (C43),2019-078B,2026-06-20T10:39:18.276192,1.86227692,.00039213,53.9054,299.6746,48.8810,311.1504,0,U,44794,999,4471,0,-.92E-6,0
COSMOS 2544 (759),2019-088A,2026-06-25T00:09:46.935072,2.13102912,.0012923,65.5700,73.4696,257.9758,101.9130,0,U,44850,999,5088,0,-.67E-6,0
BEIDOU-3 M19 (C41),2019-090A,2026-06-24T06:00:48.320064,1.86231520,.00175865,56.5650,62.5564,297.6479,291.8664,0,U,44864,999,4436,0,-.95E-6,0
BEIDOU-3 M20 (C42),2019-090B,2026-06-24T02:41:48.318720,1.86231501,.00153707,56.5667,62.5955,311.9218,274.5279,0,U,44865,999,4434,0,-.95E-6,0
BEIDOU-3 G2 (C60),2020-017A,2026-06-25T19:49:29.030016,1.00272030,.0002487,2.8820,47.4925,37.4477,206.4801,0,U,45344,999,2334,0,-.133E-5,0
COSMOS 2545 (760),2020-018A,2026-06-22T09:16:10.221888,2.13102345,.00085514,64.3518,312.2361,229.7005,130.2180,0,U,45358,999,4877,0,-.76E-6,0
BEIDOU-3 G3 (C61),2020-040A,2026-06-25T19:58:13.192896,1.00275033,.0002643,2.4689,67.4804,327.3724,289.1907,0,U,45807,999,2215,0,-.345E-5,0
GPS BIII-3  (PRN 23),2020-041A,2026-06-24T17:08:03.225408,2.00558689,.00644566,56.6750,28.6507,204.5351,155.8006,0,U,45854,999,4419,0,-.91E-6,0
GALAXY 30 (WAAS/PRN 135),2020-056C,2026-06-24T17:11:02.937408,1.00270732,.00022205,0.0130,51.5985,38.3382,315.6757,0,U,46114,999,2136,0,.46E-6,0
COSMOS 2547 (705K),2020-075A,2026-06-23T01:04:53.845824,2.13100075,.00093897,64.5998,192.2800,239.8936,120.0622,0,U,46805,999,4403,0,.94E-6,0
GPS BIII-4  (PRN 14),2020-078A,2026-06-25T17:53:47.234112,2.00565119,.0073802,53.9789,210.4312,207.4080,154.5186,0,U,46826,999,4168,0,.82E-6,0
GPS BIII-5  (PRN 11),2021-054A,2026-06-25T11:56:47.955264,2.00568759,.0025649,55.1703,332.1251,228.3252,140.8922,0,U,48859,999,3692,0,-.106E-5,0
QZS-1R (QZSS/PRN 196),2021-096A,2026-06-25T14:54:03.356352,1.00253341,.0755538,37.4786,79.4571,271.9543,279.2646,0,U,49336,999,1709,0,-.314E-5,0
GSAT0223 (GALILEO 27),2021-116A,2026-06-23T10:34:17.397696,1.70476308,.00016008,57.1590,341.5051,183.5383,174.0725,0,U,49809,999,2828,0,-.98E-6,0
GSAT0224 (GALILEO 28),2021-116B,2026-06-25T14:50:06.558144,1.70476480,.0001373,57.1582,341.4455,160.1269,206.5880,0,U,49810,999,2835,0,-.97E-6,0
COSMOS 2557 (706K),2022-075A,2026-06-22T06:29:57.729120,2.13102021,.00103034,64.2952,314.3058,273.7574,86.1177,0,U,52984,999,3082,0,-.76E-6,0
COSMOS 2559 (707K),2022-130A,2026-06-23T23:13:10.532928,2.13101763,.00126998,64.2669,314.3295,178.7771,181.2176,0,U,54031,999,2883,0,-.84E-6,0
COSMOS 2564 (761),2022-161A,2026-06-25T05:14:39.624288,2.13102109,.0012253,64.7424,192.4450,225.0165,134.9378,0,U,54377,999,2780,0,.108E-5,0
GPS BIII-6  (PRN 28),2023-009A,2026-06-24T22:27:29.785824,2.00571146,.00063338,55.1239,148.2141,317.2838,44.5224,0,U,55268,999,2540,0,.55E-6,0
BEIDOU-3 G4 (C62),2023-066A,2026-06-25T18:23:59.023968,1.00271519,.0004747,0.4772,333.7152,175.6968,180.5424,0,U,56564,999,1147,0,-.27E-5,0
NVS-01 (IRNSS-1J),2023-076A,2026-06-25T20:03:35.178048,1.00275333,.0002833,2.1457,243.9460,13.6257,86.8230,0,U,56759,999,1120,0,-.322E-5,0
COSMOS 2569 (703K),2023-114A,2026-06-25T05:32:22.549056,2.13103816,.0010356,65.3066,72.3492,296.6685,63.2611,0,U,57517,999,2243,0,-.67E-6,0
BEIDOU-3 M28 (C50),2023-207A,2026-06-24T19:36:01.938240,1.86229863,.00030303,55.7594,62.0455,351.9089,8.1238,0,U,58654,999,1698,0,-.96E-6,0
BEIDOU-3 M26 (C48),2023-207B,2026-06-25T03:37:39.027360,1.86229846,.0002738,55.7619,62.0208,322.0424,37.9767,0,U,58655,999,1697,0,-.94E-6,0
